[{"OBJECT_NAME":"AUTCUBE 2","OBJECT_ID":"2018-084K","EPOCH":"2026-03-09T11:33:24.036480","MEAN_MOTION":15.09319394,"ECCENTRICITY":0.00096854,"INCLINATION":98.0799,"RA_OF_ASC_NODE":269.364,"ARG_OF_PERICENTER":28.2406,"MEAN_ANOMALY":331.9345,"EPHEMERIS_TYPE":0,"CLASSIFICATION_TYPE":"U","NORAD_CAT_ID":43681,"ELEMENT_SET_NO":999,"REV_AT_EPOCH":40188,"BSTAR":0.00033524122,"MEAN_MOTION_DOT":5.282e-5,"MEAN_MOTION_DDOT":0},{"OBJECT_NAME":"UNISAT","OBJECT_ID":"2000-057C","EPOCH":"2026-03-09T10:21:07.624800","MEAN_MOTION":15.08907267,"ECCENTRICITY":0.00363457,"INCLINATION":64.544,"RA_OF_ASC_NODE":74.146,"ARG_OF_PERICENTER":312.3548,"MEAN_ANOMALY":47.4494,"EPHEMERIS_TYPE":0,"CLASSIFICATION_TYPE":"U","NORAD_CAT_ID":26547,"ELEMENT_SET_NO":999,"REV_AT_EPOCH":38146,"BSTAR":0.00046170414,"MEAN_MOTION_DOT":7.242e-5,"MEAN_MOTION_DDOT":0}]
